{
  "type": "FeatureCollection",
  "features": [
    {
      "type": "Feature",
      "properties": {
        "norad_id": 66533,
        "name": "STARLINK-35707",
        "group": "last-30-days",
        "lat": 40.98679125503054,
        "lon": -160.80811457794502,
        "alt_km": 372.0116631514629,
        "timestamp": "2025-12-06T22:38:41.508607+00:00",
        "meta_object_name": "STARLINK-35707",
        "meta_object_id": "2025-265T",
        "meta_epoch": "2025-12-06T14:00:01.999872",
        "meta_mean_motion": 15.65137253,
        "meta_eccentricity": 0.00012519,
        "meta_inclination": 43.0002,
        "meta_ra_of_asc_node": 90.1598,
        "meta_arg_of_pericenter": 275.9526,
        "meta_mean_anomaly": 318.9969,
        "meta_ephemeris_type": 0,
        "meta_classification_type": "U",
        "meta_norad_cat_id": 66533,
        "meta_element_set_no": 999,
        "meta_rev_at_epoch": 400,
        "meta_bstar": -0.022272091,
        "meta_mean_motion_dot": -0.0199113,
        "meta_mean_motion_ddot": 0,
        "tle_line1": "1 66533U 25265T   25340.58335648 -.01991130  00000+0 -22272-1 0  9990",
        "tle_line2": "2 66533  43.0002  90.1598 0001251 275.9526 318.9969 15.65137253  4008"
      },
      "geometry": {
        "type": "Point",
        "coordinates": [
          -160.80811457794502,
          40.98679125503054
        ]
      }
    },
    {
      "type": "Feature",
      "properties": {
        "norad_id": 66534,
        "name": "STARLINK-35976",
        "group": "last-30-days",
        "lat": 40.48822869021885,
        "lon": -158.36671919806966,
        "alt_km": 372.0791766838902,
        "timestamp": "2025-12-06T22:38:41.508617+00:00",
        "meta_object_name": "STARLINK-35976",
        "meta_object_id": "2025-265U",
        "meta_epoch": "2025-12-06T14:00:01.999872",
        "meta_mean_motion": 15.65135357,
        "meta_eccentricity": 0.00012423,
        "meta_inclination": 43.0003,
        "meta_ra_of_asc_node": 90.1556,
        "meta_arg_of_pericenter": 276.7961,
        "meta_mean_anomaly": 320.0708,
        "meta_ephemeris_type": 0,
        "meta_classification_type": "U",
        "meta_norad_cat_id": 66534,
        "meta_element_set_no": 999,
        "meta_rev_at_epoch": 400,
        "meta_bstar": -0.022237628,
        "meta_mean_motion_dot": -0.01988281,
        "meta_mean_motion_ddot": 0,
        "tle_line1": "1 66534U 25265U   25340.58335648 -.01988281  00000+0 -22238-1 0  9996",
        "tle_line2": "2 66534  43.0003  90.1556 0001242 276.7961 320.0708 15.65135357  4004"
      },
      "geometry": {
        "type": "Point",
        "coordinates": [
          -158.36671919806966,
          40.48822869021885
        ]
      }
    },
    {
      "type": "Feature",
      "properties": {
        "norad_id": 66535,
        "name": "STARLINK-35514",
        "group": "last-30-days",
        "lat": 39.93880555285195,
        "lon": -155.96422747489135,
        "alt_km": 372.1911297814895,
        "timestamp": "2025-12-06T22:38:41.508629+00:00",
        "meta_object_name": "STARLINK-35514",
        "meta_object_id": "2025-265V",
        "meta_epoch": "2025-12-06T14:00:01.999872",
        "meta_mean_motion": 15.65136329,
        "meta_eccentricity": 0.00012833,
        "meta_inclination": 43.0002,
        "meta_ra_of_asc_node": 90.1508,
        "meta_arg_of_pericenter": 277.9192,
        "meta_mean_anomaly": 320.8632,
        "meta_ephemeris_type": 0,
        "meta_classification_type": "U",
        "meta_norad_cat_id": 66535,
        "meta_element_set_no": 999,
        "meta_rev_at_epoch": 400,
        "meta_bstar": -0.022246796,
        "meta_mean_motion_dot": -0.01989101,
        "meta_mean_motion_ddot": 0,
        "tle_line1": "1 66535U 25265V   25340.58335648 -.01989101  00000+0 -22247-1 0  9999",
        "tle_line2": "2 66535  43.0002  90.1508 0001283 277.9192 320.8632 15.65136329  4009"
      },
      "geometry": {
        "type": "Point",
        "coordinates": [
          -155.96422747489135,
          39.93880555285195
        ]
      }
    },
    {
      "type": "Feature",
      "properties": {
        "norad_id": 66536,
        "name": "STARLINK-35640",
        "group": "last-30-days",
        "lat": 39.34027527101813,
        "lon": -153.60105574643114,
        "alt_km": 372.26731424760874,
        "timestamp": "2025-12-06T22:38:41.508639+00:00",
        "meta_object_name": "STARLINK-35640",
        "meta_object_id": "2025-265W",
        "meta_epoch": "2025-12-06T14:00:01.999872",
        "meta_mean_motion": 15.65137261,
        "meta_eccentricity": 0.00012687,
        "meta_inclination": 43.0002,
        "meta_ra_of_asc_node": 90.1458,
        "meta_arg_of_pericenter": 276.7297,
        "meta_mean_anomaly": 323.9699,
        "meta_ephemeris_type": 0,
        "meta_classification_type": "U",
        "meta_norad_cat_id": 66536,
        "meta_element_set_no": 999,
        "meta_rev_at_epoch": 398,
        "meta_bstar": -0.022259959,
        "meta_mean_motion_dot": -0.0199019,
        "meta_mean_motion_ddot": 0,
        "tle_line1": "1 66536U 25265W   25340.58335648 -.01990190  00000+0 -22260-1 0  9995",
        "tle_line2": "2 66536  43.0002  90.1458 0001268 276.7297 323.9699 15.65137261  3989"
      },
      "geometry": {
        "type": "Point",
        "coordinates": [
          -153.60105574643114,
          39.34027527101813
        ]
      }
    },
    {
      "type": "Feature",
      "properties": {
        "norad_id": 66537,
        "name": "STARLINK-35582",
        "group": "last-30-days",
        "lat": 38.6953478653675,
        "lon": -151.28123293297529,
        "alt_km": 372.3648000743333,
        "timestamp": "2025-12-06T22:38:41.508649+00:00",
        "meta_object_name": "STARLINK-35582",
        "meta_object_id": "2025-265X",
        "meta_epoch": "2025-12-06T14:00:01.999872",
        "meta_mean_motion": 15.65135057,
        "meta_eccentricity": 0.00012851,
        "meta_inclination": 43.0005,
        "meta_ra_of_asc_node": 90.1408,
        "meta_arg_of_pericenter": 275.8167,
        "meta_mean_anomaly": 326.7997,
        "meta_ephemeris_type": 0,
        "meta_classification_type": "U",
        "meta_norad_cat_id": 66537,
        "meta_element_set_no": 999,
        "meta_rev_at_epoch": 400,
        "meta_bstar": -0.022206694,
        "meta_mean_motion_dot": -0.0198586,
        "meta_mean_motion_ddot": 0,
        "tle_line1": "1 66537U 25265X   25340.58335648 -.01985860  00000+0 -22207-1 0  9995",
        "tle_line2": "2 66537  43.0005  90.1408 0001285 275.8167 326.7997 15.65135057  4000"
      },
      "geometry": {
        "type": "Point",
        "coordinates": [
          -151.28123293297529,
          38.6953478653675
        ]
      }
    },
    {
      "type": "Feature",
      "properties": {
        "norad_id": 66538,
        "name": "STARLINK-35577",
        "group": "last-30-days",
        "lat": 38.004521674578314,
        "lon": -149.00318969976428,
        "alt_km": 372.49888859324255,
        "timestamp": "2025-12-06T22:38:41.508659+00:00",
        "meta_object_name": "STARLINK-35577",
        "meta_object_id": "2025-265Y",
        "meta_epoch": "2025-12-06T14:00:01.999872",
        "meta_mean_motion": 15.65134453,
        "meta_eccentricity": 0.00013239,
        "meta_inclination": 43.0005,
        "meta_ra_of_asc_node": 90.1357,
        "meta_arg_of_pericenter": 277.6213,
        "meta_mean_anomaly": 326.9121,
        "meta_ephemeris_type": 0,
        "meta_classification_type": "U",
        "meta_norad_cat_id": 66538,
        "meta_element_set_no": 999,
        "meta_rev_at_epoch": 400,
        "meta_bstar": -0.022197059,
        "meta_mean_motion_dot": -0.0198509,
        "meta_mean_motion_ddot": 0,
        "tle_line1": "1 66538U 25265Y   25340.58335648 -.01985090  00000+0 -22197-1 0  9999",
        "tle_line2": "2 66538  43.0005  90.1357 0001323 277.6213 326.9121 15.65134453  4009"
      },
      "geometry": {
        "type": "Point",
        "coordinates": [
          -149.00318969976428,
          38.004521674578314
        ]
      }
    },
    {
      "type": "Feature",
      "properties": {
        "norad_id": 66539,
        "name": "STARLINK-35697",
        "group": "last-30-days",
        "lat": 37.27033184610301,
        "lon": -146.7689783880114,
        "alt_km": 372.58648288619315,
        "timestamp": "2025-12-06T22:38:41.508669+00:00",
        "meta_object_name": "STARLINK-35697",
        "meta_object_id": "2025-265Z",
        "meta_epoch": "2025-12-06T14:00:01.999872",
        "meta_mean_motion": 15.65136685,
        "meta_eccentricity": 0.00012916,
        "meta_inclination": 43.0004,
        "meta_ra_of_asc_node": 90.1308,
        "meta_arg_of_pericenter": 277.4648,
        "meta_mean_anomaly": 328.9846,
        "meta_ephemeris_type": 0,
        "meta_classification_type": "U",
        "meta_norad_cat_id": 66539,
        "meta_element_set_no": 999,
        "meta_rev_at_epoch": 400,
        "meta_bstar": -0.022233766,
        "meta_mean_motion_dot": -0.01988108,
        "meta_mean_motion_ddot": 0,
        "tle_line1": "1 66539U 25265Z   25340.58335648 -.01988108  00000+0 -22234-1 0  9995",
        "tle_line2": "2 66539  43.0004  90.1308 0001291 277.4648 328.9846 15.65136685  4004"
      },
      "geometry": {
        "type": "Point",
        "coordinates": [
          -146.7689783880114,
          37.27033184610301
        ]
      }
    }
  ]
}